STARLINK-36730          
1 67874U 26034AA  26061.91668981  .00040585  00000+0  20840-3 0  9998
2 67874  53.1547 245.0882 0001072  79.7660  95.5583 15.80851315  2771
STARLINK-36727          
1 67875U 26034AB  26061.91668981  .00026931  00000+0  13965-3 0  9998
2 67875  53.1531 245.0792 0000677  82.3681  97.2247 15.80858655  2778
STARLINK-36743          
1 67876U 26034AC  26061.91668981  .00025679  00000+0  13335-3 0  9998
2 67876  53.1530 245.0700 0001154  90.2289  93.6354 15.80856517  2774
STARLINK-36784          
1 67877U 26034AD  26061.91668981  .00072282  00000+0  36726-3 0  9990
2 67877  53.1532 245.0614 0001366  59.9582 128.1775 15.80838907  2778
STARLINK-36689          
1 67878U 26034AE  26061.91668981  .00129387  00000+0  65129-3 0  9999
2 67878  53.1532 245.0529 0001332  79.6817 112.7450 15.80805932  2778
STARLINK-36818          
1 67879U 26035A   26061.91668981 -.00944917  30003-3 -17205-2 0  9998
2 67879  97.2793 353.7074 0001222 107.8353  93.8782 16.01458116  2663
STARLINK-36821          
1 67880U 26035B   26061.91668981 -.00947161  30200-3 -17063-2 0  9995
2 67880  97.2790 353.7098 0001080  99.7508 107.3295 16.01643432  2668
STARLINK-36808          
1 67881U 26035C   26061.91668981 -.00946130  30100-3 -17155-2 0  9992
2 67881  97.2790 353.7082 0001153 104.0255  99.6900 16.01531058  2668
STARLINK-36817          
1 67882U 26035D   26061.91668981 -.00951399  30530-3 -16919-2 0  9990
2 67882  97.2783 353.7122 0001162  98.4604 115.1855 16.01867459  2660
STARLINK-36856          
1 67883U 26035E   26061.91668981 -.00951274  30485-3 -17019-2 0  9994
2 67883  97.2786 353.7111 0001148 103.9835 106.6134 16.01763220  2660
STARLINK-36842          
1 67884U 26035F   26061.91668981 -.00947163  30314-3 -16746-2 0  9994
2 67884  97.2783 353.7136 0001024  93.0263 123.4441 16.01967670  2665
STARLINK-36826          
1 67885U 26035G   26061.91668981 -.00948235  30406-3 -16685-2 0  9990
2 67885  97.2782 353.7146 0001056  94.2457 124.4418 16.02050699  2669
